ONEWEB-0063             
1 45448U 20020AA  23330.68290648 -.00000338  00000+0 -98854-3 0  9995
2 45448  87.8995 206.5480 0001907  71.5828 288.5507 13.11414413180340
ONEWEB-0019             
1 45449U 20020AB  23330.73324859  .00000708  00000+0  19625-2 0  9991
2 45449  87.8990 206.5352 0001634  86.9802 273.1513 13.11414980180204
ONEWEB-0094             
1 45450U 20020AC  23330.66934254  .00000046  00000+0  84611-4 0  9995
2 45450  87.9170 191.4374 0001555  84.5899 275.5410 13.17647795183376
ONEWEB-0087             
1 45451U 20020AD  23330.68939822 -.00000491  00000+0 -14207-2 0  9992
2 45451  87.8982 206.5321 0001501  65.2873 294.8411 13.11417331180249
ONEWEB-0082             
1 45452U 20020AE  23330.69103036 -.00000387  00000+0 -11283-2 0  9999
2 45452  87.8998 206.5217 0001508  78.7876 281.3421 13.11417928180334
ONEWEB-0050             
1 45453U 20020AF  23330.34507102  .00012210  00000+0  97258-3 0  9997
2 45453  88.0015  80.1145 0026593  85.1280 275.2989 14.99990719201208
ONEWEB-0034             
1 45454U 20020AG  23330.17643489  .00000357  00000+0  97222-3 0  9998
2 45454  87.8997 206.6415 0001501  77.8979 282.2317 13.11418591180176
ONEWEB-0060             
1 45455U 20020AH  23330.56603758  .00000353  00000+0  96053-3 0  9994
2 45455  87.8987 206.5623 0001589  69.7017 290.4281 13.11418614180183
